PLEIADES NEO 3          
1 48268U 21034A   26194.86093109 -.00001265  00000+0 -15414-3 0  9999
2 48268  97.8946 269.2435 0001366  89.8794 270.2575 14.81667394281609
PLEIADES NEO 4          
1 49070U 21073E   26194.82716499  .00000447  00000+0  63442-4 0  9998
2 49070  97.8943 269.2064 0001319  93.5942 266.5422 14.81669960265311
